NORAD_CAT_ID,OBJECT_NAME,OBJECT_TYPE,EPOCH,MEAN_MOTION,ECCENTRICITY,INCLINATION,RA_OF_ASC_NODE,ARG_OF_PERICENTER,MEAN_ANOMALY,BSTAR,MEAN_MOTION_DOT,MEAN_MOTION_DDOT,TLE_LINE0,TLE_LINE1,TLE_LINE2,SEMIMAJOR_AXIS,PERIOD,APOGEE,PERIGEE,DECAYED
54164.0,STARLINK-5278,PAYLOAD,2023-12-06 18:56:06,15.08839578,0.0001455,53.2195,102.964,105.8392,254.2761,-1.3783e-07,-2.9e-06,0.0,0 STARLINK-5278,1 54164U 22141H   23340.78896735 -.00000290  00000-0 -13783-6 0  9996,2 54164  53.2195 102.9640 0001455 105.8392 254.2761 15.08839578 61471,6917.882,95.438,540.753,538.74,0.0
54164.0,STARLINK-5278,PAYLOAD,2023-12-07 12:25:20,15.08875505,0.0001566,53.2188,99.6949,97.0686,263.0484,-0.00048321,-7.978e-05,0.0,0 STARLINK-5278,1 54164U 22141H   23341.51760070 -.00007978  00000-0 -48321-3 0  9993,2 54164  53.2188  99.6949 0001566  97.0686 263.0484 15.08875505 61580,6917.772,95.435,540.72,538.554,0.0
54164.0,STARLINK-5278,PAYLOAD,2023-12-07 17:11:29,15.08858926,0.0001809,53.2188,98.8037,121.1662,238.9508,-0.00018786,-3.278e-05,0.0,0 STARLINK-5278,1 54164U 22141H   23341.71631734 -.00003278  00000-0 -18786-3 0  9990,2 54164  53.2188  98.8037 0001809 121.1662 238.9508 15.08858926 61612,6917.823,95.436,540.939,538.436,0.0
54164.0,STARLINK-5278,PAYLOAD,2023-12-08 12:16:07,15.08837736,0.0001712,53.2197,95.2334,105.0676,255.0505,6.5544e-05,7.55e-06,0.0,0 STARLINK-5278,1 54164U 22141H   23342.51120283  .00000755  00000-0  65544-4 0  9991,2 54164  53.2197  95.2334 0001712 105.0676 255.0505 15.08837736 61738,6917.887,95.438,540.937,538.568,0.0
54164.0,STARLINK-5278,PAYLOAD,2023-12-09 12:06:55,15.08840375,0.0001635,53.2186,90.772,105.5908,254.5265,3.6477e-06,-2.3e-06,0.0,0 STARLINK-5278,1 54164U 22141H   23343.50480340 -.00000230  00000-0  36477-5 0  9997,2 54164  53.2186  90.7720 0001635 105.5908 254.5265 15.08840375 61888,6917.879,95.438,540.875,538.613,0.0
54164.0,STARLINK-5278,PAYLOAD,2023-12-10 11:57:42,15.08840139,0.0001396,53.2181,86.3125,85.1428,274.9723,2.4737e-05,1.06e-06,0.0,0 STARLINK-5278,1 54164U 22141H   23344.49840297  .00000106  00000-0  24737-4 0  9993,2 54164  53.2181  86.3125 0001396  85.1428 274.9723 15.08840139 62038,6917.88,95.438,540.711,538.779,0.0
54164.0,STARLINK-5278,PAYLOAD,2023-12-10 13:33:05,15.08840659,0.0001445,53.2183,86.0151,91.2109,268.9049,2.7985e-05,1.57e-06,0.0,0 STARLINK-5278,1 54164U 22141H   23344.56464226  .00000157  00000-0  27985-4 0  9999,2 54164  53.2183  86.0151 0001445  91.2109 268.9049 15.08840659 62047,6917.878,95.438,540.743,538.744,0.0
54164.0,STARLINK-5278,PAYLOAD,2023-12-11 13:23:52,15.08838888,0.0001486,53.2182,81.5545,95.221,264.8952,2.9483e-05,1.81e-06,0.0,0 STARLINK-5278,1 54164U 22141H   23345.55824337  .00000181  00000-0  29483-4 0  9994,2 54164  53.2182  81.5545 0001486  95.2210 264.8952 15.08838888 62190,6917.884,95.438,540.777,538.721,0.0
54164.0,STARLINK-5278,PAYLOAD,2023-12-12 13:14:39,15.08837985,0.0001426,53.2179,77.094,104.0294,256.0857,4.1494e-06,-2.22e-06,0.0,0 STARLINK-5278,1 54164U 22141H   23346.55184573 -.00000222  00000-0  41494-5 0  9990,2 54164  53.2179  77.0940 0001426 104.0294 256.0857 15.08837985 62341,6917.887,95.438,540.738,538.765,0.0
54164.0,STARLINK-5278,PAYLOAD,2023-12-13 11:30:03,15.08842091,0.0001366,53.2178,72.9317,105.5735,254.5408,1.7206e-05,-1.4e-07,0.0,0 STARLINK-5278,1 54164U 22141H   23347.47920366 -.00000014  00000-0  17206-4 0  9992,2 54164  53.2178  72.9317 0001366 105.5735 254.5408 15.08842091 62485,6917.874,95.437,540.684,538.794,0.0
54164.0,STARLINK-5278,PAYLOAD,2023-12-14 11:20:50,15.08827368,0.0001258,53.2177,68.4685,88.0223,272.0913,0.00016128,2.279e-05,0.0,0 STARLINK-5278,1 54164U 22141H   23348.47280854  .00002279  00000-0  16128-3 0  9999,2 54164  53.2177  68.4685 0001258  88.0223 272.0913 15.08827368 62632,6917.919,95.438,540.654,538.914,0.0
54164.0,STARLINK-5278,PAYLOAD,2023-12-14 12:56:13,15.08808599,0.0001377,53.2179,68.1719,81.2813,278.8335,0.00044114,6.734e-05,0.0,0 STARLINK-5278,1 54164U 22141H   23348.53905057  .00006734  00000-0  44114-3 0  9991,2 54164  53.2179  68.1719 0001377  81.2813 278.8335 15.08808599 62649,6917.976,95.44,540.794,538.889,0.0
54164.0,STARLINK-5278,PAYLOAD,2023-12-15 12:47:01,15.08797467,0.0001921,53.2196,63.7134,62.2538,297.8649,0.00045829,7.005e-05,0.0,0 STARLINK-5278,1 54164U 22141H   23349.53266151  .00007005  00000-0  45829-3 0  9993,2 54164  53.2196  63.7134 0001921  62.2538 297.8649 15.08797467 62794,6918.01,95.44,541.204,538.546,0.0
54164.0,STARLINK-5278,PAYLOAD,2023-12-16 11:02:25,15.08839803,0.0002167,53.2201,59.5483,54.3248,305.7946,5.9508e-05,6.59e-06,0.0,0 STARLINK-5278,1 54164U 22141H   23350.46001304  .00000659  00000-0  59508-4 0  9992,2 54164  53.2201  59.5483 0002167  54.3248 305.7946 15.08839803 62930,6917.881,95.438,541.245,538.247,0.0
54164.0,STARLINK-5278,PAYLOAD,2023-12-16 12:37:48,15.08825277,0.0002196,53.2207,59.2452,58.522,301.5987,0.00030713,4.601e-05,0.0,0 STARLINK-5278,1 54164U 22141H   23350.52625242  .00004601  00000-0  30713-3 0  9999,2 54164  53.2207  59.2452 0002196  58.5220 301.5987 15.08825277 62947,6917.925,95.438,541.31,538.271,0.0
54164.0,STARLINK-5278,PAYLOAD,2023-12-17 10:53:12,15.08836557,0.0002073,53.22,55.0873,60.8378,299.2822,3.1926e-05,2.2e-06,0.0,0 STARLINK-5278,1 54164U 22141H   23351.45361737  .00000220  00000-0  31926-4 0  9999,2 54164  53.2200  55.0873 0002073  60.8378 299.2822 15.08836557 63085,6917.891,95.438,541.19,538.322,0.0
54164.0,STARLINK-5278,PAYLOAD,2023-12-18 10:43:58,15.08841968,0.0001711,53.2186,50.6252,75.5365,284.5817,0.00020243,2.935e-05,0.0,0 STARLINK-5278,1 54164U 22141H   23352.44720336  .00002935  00000-0  20243-3 0  9997,2 54164  53.2186  50.6252 0001711  75.5365 284.5817 15.08841968 63237,6917.874,95.437,540.923,538.556,0.0
54164.0,STARLINK-5278,PAYLOAD,2023-12-19 10:34:46,15.08837885,0.0001625,53.2193,46.1686,106.1461,253.971,-2.475e-05,-6.82e-06,0.0,0 STARLINK-5278,1 54164U 22141H   23353.44081251 -.00000682  00000-0 -24750-4 0  9991,2 54164  53.2193  46.1686 0001625 106.1461 253.9710 15.08837885 63389,6917.887,95.438,540.876,538.628,0.0
54164.0,STARLINK-5278,PAYLOAD,2023-12-20 10:25:33,15.08838519,0.0001569,53.219,41.7066,97.569,262.5481,-0.00011115,-2.056e-05,0.0,0 STARLINK-5278,1 54164U 22141H   23354.43441776 -.00002056  00000-0 -11115-3 0  9990,2 54164  53.2190  41.7066 0001569  97.5690 262.5481 15.08838519 63536,6917.885,95.438,540.835,538.664,0.0
54164.0,STARLINK-5278,PAYLOAD,2023-12-21 10:16:20,15.08842768,0.0001556,53.219,37.2478,97.4089,262.708,0.00014491,2.019e-05,0.0,0 STARLINK-5278,1 54164U 22141H   23355.42801149  .00002019  00000-0  14491-3 0  9991,2 54164  53.2190  37.2478 0001556  97.4089 262.7080 15.08842768 63684,6917.872,95.437,540.813,538.661,0.0
54164.0,STARLINK-5278,PAYLOAD,2023-12-22 10:07:08,15.08839758,0.0001689,53.2188,32.7881,77.1653,282.9527,6.4087e-05,7.32e-06,0.0,0 STARLINK-5278,1 54164U 22141H   23356.42162190  .00000732  00000-0  64087-4 0  9995,2 54164  53.2188  32.7881 0001689  77.1653 282.9527 15.08839758 63830,6917.881,95.438,540.915,538.578,0.0
54164.0,STARLINK-5278,PAYLOAD,2023-12-23 11:33:18,15.08847231,0.0001911,53.2197,28.0224,71.4569,288.663,9.9213e-06,-1.3e-06,0.0,0 STARLINK-5278,1 54164U 22141H   23357.48146016 -.00000130  00000-0  99213-5 0  9994,2 54164  53.2197  28.0224 0001911  71.4569 288.6630 15.08847231 63990,6917.858,95.437,541.045,538.401,0.0
54164.0,STARLINK-5278,PAYLOAD,2023-12-24 08:13:19,15.08839361,0.0002216,53.2206,24.1533,65.7853,294.3371,4.8398e-05,4.82e-06,0.0,0 STARLINK-5278,1 54164U 22141H   23358.34258546  .00000482  00000-0  48398-4 0  9998,2 54164  53.2206  24.1533 0002216  65.7853 294.3371 15.08839361 64129,6917.882,95.438,541.28,538.214,0.0
54164.0,STARLINK-5278,PAYLOAD,2023-12-25 11:14:51,15.08848148,0.0001673,53.2187,19.1011,93.1938,266.9245,8.8067e-05,1.114e-05,0.0,0 STARLINK-5278,1 54164U 22141H   23359.46865499  .00001114  00000-0  88067-4 0  9993,2 54164  53.2187  19.1011 0001673  93.1938 266.9245 15.08848148 64293,6917.855,95.437,540.878,538.563,0.0
54164.0,STARLINK-5278,PAYLOAD,2023-12-26 01:33:20,15.08834533,0.0001792,53.2194,16.4177,122.3833,237.7332,-2.7295e-05,-7.22e-06,0.0,0 STARLINK-5278,1 54164U 22141H   23360.06482604 -.00000722  00000-0 -27295-4 0  9996,2 54164  53.2194  16.4177 0001792 122.3833 237.7332 15.08834533 64381,6917.897,95.438,541.002,538.522,0.0
54164.0,STARLINK-5278,PAYLOAD,2023-12-26 07:54:53,15.08836365,0.000174,53.2189,15.2419,98.0264,262.0925,1.0627e-05,-1.19e-06,0.0,0 STARLINK-5278,1 54164U 22141H   23360.32978688 -.00000119  00000-0  10627-4 0  9997,2 54164  53.2189  15.2419 0001740  98.0264 262.0925 15.08836365 64420,6917.891,95.438,540.96,538.553,0.0
54164.0,STARLINK-5278,PAYLOAD,2023-12-27 07:45:40,15.08846662,0.0001758,53.2189,10.7812,109.5852,250.5331,2.798e-05,1.57e-06,0.0,0 STARLINK-5278,1 54164U 22141H   23361.32338051  .00000157  00000-0  27980-4 0  9993,2 54164  53.2189  10.7812 0001758 109.5852 250.5331 15.08846662 64577,6917.86,95.437,540.941,538.509,0.0
54164.0,STARLINK-5278,PAYLOAD,2023-12-28 04:25:41,15.0883592,0.0001666,53.2187,6.9134,97.023,263.0952,6.265e-05,7.09e-06,0.0,0 STARLINK-5278,1 54164U 22141H   23362.18450816  .00000709  00000-0  62650-4 0  9998,2 54164  53.2187   6.9134 0001666  97.0230 263.0952 15.08835920 64706,6917.893,95.438,540.91,538.605,0.0
54164.0,STARLINK-5278,PAYLOAD,2023-12-28 06:01:04,15.08837403,0.0001706,53.219,6.6168,97.5549,262.5637,7.5966e-05,9.21e-06,0.0,0 STARLINK-5278,1 54164U 22141H   23362.25074737  .00000921  00000-0  75966-4 0  9990,2 54164  53.2190   6.6168 0001706  97.5549 262.5637 15.08837403 64710,6917.888,95.438,540.934,538.573,0.0
54164.0,STARLINK-5278,PAYLOAD,2023-12-29 09:02:39,15.08786492,0.0002058,53.2193,1.5631,101.4039,258.7184,0.00072987,0.0001133,0.0,0 STARLINK-5278,1 54164U 22141H   23363.37684365  .00011330  00000-0  72987-3 0  9993,2 54164  53.2193   1.5631 0002058 101.4039 258.7184 15.08786492 64885,6918.044,95.441,541.333,538.485,0.0
